STARLINK-36078          
1 67050U 25294W   25361.16668980 -.01912932  00000+0 -23389-1 0  9995
2 67050  42.9997  94.1140 0001512 272.2824  70.2826 15.62774186  2548
STARLINK-35706          
1 67051U 25294X   25361.16668980 -.01913706  00000+0 -23416-1 0  9997
2 67051  42.9998  94.1089 0001488 271.3166  73.3543 15.62756897  2621
STARLINK-35720          
1 67052U 25294Y   25361.16668980 -.01917237  00000+0 -23466-1 0  9996
2 67052  42.9997  94.1039 0001535 271.8415  74.7795 15.62755951  2614
STARLINK-35739          
1 67053U 25294Z   25361.16668980 -.01914381  00000+0 -23440-1 0  9996
2 67053  42.9998  94.0989 0001565 273.7474  74.9203 15.62740850  2267
STARLINK-35754          
1 67054U 25294AA  25361.16668980 -.01918088  00000+0 -23506-1 0  9998
2 67054  42.9994  94.0935 0001512 273.0639  77.7240 15.62725182  2424
STARLINK-35790          
1 67055U 25294AB  25361.16668980 -.01920402  00000+0 -23551-1 0  9992
2 67055  42.9994  94.0875 0001587 272.6422  80.2331 15.62710654  2625
STARLINK-36143          
1 67056U 25294AC  25361.16668980 -.01914344  00000+0 -23490-1 0  9993
2 67056  42.9994  94.0723 0001499 272.9870  85.8209 15.62686702  2621
STARLINK-36141          
1 67057U 25294AD  25361.16668980 -.01913961  00000+0 -23476-1 0  9992
2 67057  42.9992  94.0778 0001497 273.3401  83.4596 15.62696087  2544
STARLINK-35767          
1 67058U 25294AE  25361.16668980 -.01922620  00000+0 -23589-1 0  9990
2 67058  42.9997  94.0827 0001491 273.6129  81.2424 15.62704678  2428
HULIANWANG DIGUI-119    
1 67059U 25295A   25361.14897595  .00000087  00000+0  10544-3 0  9996
2 67059  50.0049 311.4648 0014000 297.2627  62.6860 14.24618068  2172
HULIANWANG DIGUI-120    
1 67060U 25295B   25357.77762159  .00000001  00000+0  67209-4 0  9996
2 67060  50.0058 325.6343 0013178 286.4479  73.4987 14.25711377  1697
HULIANWANG DIGUI-121    
1 67061U 25295C   25357.42819951 -.00000239  00000+0 -33550-4 0  9999
2 67061  50.0019 327.1083 0013406 283.4183  76.5236 14.25038967  1649
