CCSDS_OMM_VERS = 2.0
CREATION_DATE  = 
ORIGINATOR     = 

OBJECT_NAME    = STARLINK-36078
OBJECT_ID      = 2025-294W
CENTER_NAME    = EARTH
REF_FRAME      = TEME
TIME_SYSTEM    = UTC
MEAN_ELEMENT_THEORY = SGP/SGP4

EPOCH          = 2025-12-27T04:00:01.998720
MEAN_MOTION    = 15.62774186
ECCENTRICITY   = .0001512
INCLINATION    = 42.9997
RA_OF_ASC_NODE = 94.1140
ARG_OF_PERICENTER = 272.2824
MEAN_ANOMALY   = 70.2826

EPHEMERIS_TYPE = 0
CLASSIFICATION_TYPE = U
NORAD_CAT_ID   = 67050
ELEMENT_SET_NO = 999
REV_AT_EPOCH   = 254
BSTAR          = -.23389E-1
MEAN_MOTION_DOT = -.1912932E-1
MEAN_MOTION_DDOT = 0

CCSDS_OMM_VERS = 2.0
CREATION_DATE  = 
ORIGINATOR     = 

OBJECT_NAME    = STARLINK-35706
OBJECT_ID      = 2025-294X
CENTER_NAME    = EARTH
REF_FRAME      = TEME
TIME_SYSTEM    = UTC
MEAN_ELEMENT_THEORY = SGP/SGP4

EPOCH          = 2025-12-27T04:00:01.998720
MEAN_MOTION    = 15.62756897
ECCENTRICITY   = .0001488
INCLINATION    = 42.9998
RA_OF_ASC_NODE = 94.1089
ARG_OF_PERICENTER = 271.3166
MEAN_ANOMALY   = 73.3543

EPHEMERIS_TYPE = 0
CLASSIFICATION_TYPE = U
NORAD_CAT_ID   = 67051
ELEMENT_SET_NO = 999
REV_AT_EPOCH   = 262
BSTAR          = -.23416E-1
MEAN_MOTION_DOT = -.1913706E-1
MEAN_MOTION_DDOT = 0

CCSDS_OMM_VERS = 2.0
CREATION_DATE  = 
ORIGINATOR     = 

OBJECT_NAME    = STARLINK-35720
OBJECT_ID      = 2025-294Y
CENTER_NAME    = EARTH
REF_FRAME      = TEME
TIME_SYSTEM    = UTC
MEAN_ELEMENT_THEORY = SGP/SGP4

EPOCH          = 2025-12-27T04:00:01.998720
MEAN_MOTION    = 15.62755951
ECCENTRICITY   = .0001535
INCLINATION    = 42.9997
RA_OF_ASC_NODE = 94.1039
ARG_OF_PERICENTER = 271.8415
MEAN_ANOMALY   = 74.7795

EPHEMERIS_TYPE = 0
CLASSIFICATION_TYPE = U
NORAD_CAT_ID   = 67052
ELEMENT_SET_NO = 999
REV_AT_EPOCH   = 261
BSTAR          = -.23466E-1
MEAN_MOTION_DOT = -.1917237E-1
MEAN_MOTION_DDOT = 0

CCSDS_OMM_VERS = 2.0
CREATION_DATE  = 
ORIGINATOR     = 

OBJECT_NAME    = STARLINK-35739
OBJECT_ID      = 2025-294Z
CENTER_NAME    = EARTH
REF_FRAME      = TEME
TIME_SYSTEM    = UTC
MEAN_ELEMENT_THEORY = SGP/SGP4

EPOCH          = 2025-12-27T04:00:01.998720
MEAN_MOTION    = 15.62740850
ECCENTRICITY   = .0001565
INCLINATION    = 42.9998
RA_OF_ASC_NODE = 94.0989
ARG_OF_PERICENTER = 273.7474
MEAN_ANOMALY   = 74.9203

EPHEMERIS_TYPE = 0
CLASSIFICATION_TYPE = U
NORAD_CAT_ID   = 67053
ELEMENT_SET_NO = 999
REV_AT_EPOCH   = 226
BSTAR          = -.2344E-1
MEAN_MOTION_DOT = -.1914381E-1
MEAN_MOTION_DDOT = 0

CCSDS_OMM_VERS = 2.0
CREATION_DATE  = 
ORIGINATOR     = 

OBJECT_NAME    = STARLINK-35754
OBJECT_ID      = 2025-294AA
CENTER_NAME    = EARTH
REF_FRAME      = TEME
TIME_SYSTEM    = UTC
MEAN_ELEMENT_THEORY = SGP/SGP4

EPOCH          = 2025-12-27T04:00:01.998720
MEAN_MOTION    = 15.62725182
ECCENTRICITY   = .0001512
INCLINATION    = 42.9994
RA_OF_ASC_NODE = 94.0935
ARG_OF_PERICENTER = 273.0639
MEAN_ANOMALY   = 77.7240

EPHEMERIS_TYPE = 0
CLASSIFICATION_TYPE = U
NORAD_CAT_ID   = 67054
ELEMENT_SET_NO = 999
REV_AT_EPOCH   = 242
BSTAR          = -.23506E-1
MEAN_MOTION_DOT = -.1918088E-1
MEAN_MOTION_DDOT = 0

CCSDS_OMM_VERS = 2.0
CREATION_DATE  = 
ORIGINATOR     = 

OBJECT_NAME    = STARLINK-35790
OBJECT_ID      = 2025-294AB
CENTER_NAME    = EARTH
REF_FRAME      = TEME
TIME_SYSTEM    = UTC
MEAN_ELEMENT_THEORY = SGP/SGP4

EPOCH          = 2025-12-27T04:00:01.998720
MEAN_MOTION    = 15.62710654
ECCENTRICITY   = .0001587
INCLINATION    = 42.9994
RA_OF_ASC_NODE = 94.0875
ARG_OF_PERICENTER = 272.6422
MEAN_ANOMALY   = 80.2331

EPHEMERIS_TYPE = 0
CLASSIFICATION_TYPE = U
NORAD_CAT_ID   = 67055
ELEMENT_SET_NO = 999
REV_AT_EPOCH   = 262
BSTAR          = -.23551E-1
MEAN_MOTION_DOT = -.1920402E-1
MEAN_MOTION_DDOT = 0

CCSDS_OMM_VERS = 2.0
CREATION_DATE  = 
ORIGINATOR     = 

OBJECT_NAME    = STARLINK-36143
OBJECT_ID      = 2025-294AC
CENTER_NAME    = EARTH
REF_FRAME      = TEME
TIME_SYSTEM    = UTC
MEAN_ELEMENT_THEORY = SGP/SGP4

EPOCH          = 2025-12-27T04:00:01.998720
MEAN_MOTION    = 15.62686702
ECCENTRICITY   = .0001499
INCLINATION    = 42.9994
RA_OF_ASC_NODE = 94.0723
ARG_OF_PERICENTER = 272.9870
MEAN_ANOMALY   = 85.8209

EPHEMERIS_TYPE = 0
CLASSIFICATION_TYPE = U
NORAD_CAT_ID   = 67056
ELEMENT_SET_NO = 999
REV_AT_EPOCH   = 262
BSTAR          = -.2349E-1
MEAN_MOTION_DOT = -.1914344E-1
MEAN_MOTION_DDOT = 0

CCSDS_OMM_VERS = 2.0
CREATION_DATE  = 
ORIGINATOR     = 

OBJECT_NAME    = STARLINK-36141
OBJECT_ID      = 2025-294AD
CENTER_NAME    = EARTH
REF_FRAME      = TEME
TIME_SYSTEM    = UTC
MEAN_ELEMENT_THEORY = SGP/SGP4

EPOCH          = 2025-12-27T04:00:01.998720
MEAN_MOTION    = 15.62696087
ECCENTRICITY   = .0001497
INCLINATION    = 42.9992
RA_OF_ASC_NODE = 94.0778
ARG_OF_PERICENTER = 273.3401
MEAN_ANOMALY   = 83.4596

EPHEMERIS_TYPE = 0
CLASSIFICATION_TYPE = U
NORAD_CAT_ID   = 67057
ELEMENT_SET_NO = 999
REV_AT_EPOCH   = 254
BSTAR          = -.23476E-1
MEAN_MOTION_DOT = -.1913961E-1
MEAN_MOTION_DDOT = 0

CCSDS_OMM_VERS = 2.0
CREATION_DATE  = 
ORIGINATOR     = 

OBJECT_NAME    = STARLINK-35767
OBJECT_ID      = 2025-294AE
CENTER_NAME    = EARTH
REF_FRAME      = TEME
TIME_SYSTEM    = UTC
MEAN_ELEMENT_THEORY = SGP/SGP4

EPOCH          = 2025-12-27T04:00:01.998720
MEAN_MOTION    = 15.62704678
ECCENTRICITY   = .0001491
INCLINATION    = 42.9997
RA_OF_ASC_NODE = 94.0827
ARG_OF_PERICENTER = 273.6129
MEAN_ANOMALY   = 81.2424

EPHEMERIS_TYPE = 0
CLASSIFICATION_TYPE = U
NORAD_CAT_ID   = 67058
ELEMENT_SET_NO = 999
REV_AT_EPOCH   = 242
BSTAR          = -.23589E-1
MEAN_MOTION_DOT = -.192262E-1
MEAN_MOTION_DDOT = 0

CCSDS_OMM_VERS = 2.0
CREATION_DATE  = 
ORIGINATOR     = 

OBJECT_NAME    = HULIANWANG DIGUI-119
OBJECT_ID      = 2025-295A
CENTER_NAME    = EARTH
REF_FRAME      = TEME
TIME_SYSTEM    = UTC
MEAN_ELEMENT_THEORY = SGP/SGP4

EPOCH          = 2025-12-27T03:34:31.522080
MEAN_MOTION    = 14.24618068
ECCENTRICITY   = .0014
INCLINATION    = 50.0049
RA_OF_ASC_NODE = 311.4648
ARG_OF_PERICENTER = 297.2627
MEAN_ANOMALY   = 62.6860

EPHEMERIS_TYPE = 0
CLASSIFICATION_TYPE = U
NORAD_CAT_ID   = 67059
ELEMENT_SET_NO = 999
REV_AT_EPOCH   = 217
BSTAR          = .10544E-3
MEAN_MOTION_DOT = .87E-6
MEAN_MOTION_DDOT = 0

CCSDS_OMM_VERS = 2.0
CREATION_DATE  = 
ORIGINATOR     = 

OBJECT_NAME    = HULIANWANG DIGUI-120
OBJECT_ID      = 2025-295B
CENTER_NAME    = EARTH
REF_FRAME      = TEME
TIME_SYSTEM    = UTC
MEAN_ELEMENT_THEORY = SGP/SGP4

EPOCH          = 2025-12-23T18:39:46.505376
MEAN_MOTION    = 14.25711377
ECCENTRICITY   = .0013178
INCLINATION    = 50.0058
RA_OF_ASC_NODE = 325.6343
ARG_OF_PERICENTER = 286.4479
MEAN_ANOMALY   = 73.4987

EPHEMERIS_TYPE = 0
CLASSIFICATION_TYPE = U
NORAD_CAT_ID   = 67060
ELEMENT_SET_NO = 999
REV_AT_EPOCH   = 169
BSTAR          = .67209387E-4
MEAN_MOTION_DOT = .1E-7
MEAN_MOTION_DDOT = 0

CCSDS_OMM_VERS = 2.0
CREATION_DATE  = 
ORIGINATOR     = 

OBJECT_NAME    = HULIANWANG DIGUI-121
OBJECT_ID      = 2025-295C
CENTER_NAME    = EARTH
REF_FRAME      = TEME
TIME_SYSTEM    = UTC
MEAN_ELEMENT_THEORY = SGP/SGP4

EPOCH          = 2025-12-23T10:16:36.437664
MEAN_MOTION    = 14.25038967
ECCENTRICITY   = .00134061
INCLINATION    = 50.0019
RA_OF_ASC_NODE = 327.1083
ARG_OF_PERICENTER = 283.4183
MEAN_ANOMALY   = 76.5236

EPHEMERIS_TYPE = 0
CLASSIFICATION_TYPE = U
NORAD_CAT_ID   = 67061
ELEMENT_SET_NO = 999
REV_AT_EPOCH   = 164
BSTAR          = -.33550159E-4
MEAN_MOTION_DOT = -.239E-5
MEAN_MOTION_DDOT = 0

